[
    {
        "Altitude(m)": 703504.1669030177,
        "Argument of Periapsis(deg)": 0.0034170363559881197,
        "Eccentricity": 0.0,
        "Inclination(deg)": 45.0,
        "Latitude(deg)": 24.759968995186412,
        "Longitude(deg)": -42.90485427931822,
        "Mean Anomaly(deg)": 36.187264994244245,
        "RAAN(deg)": 29.996774417562534,
        "Satellite Name": "Constellation 1 134",
        "Satellite Number": 134,
        "Semi-Major Axis(m)": 7083131.272910544,
        "Time(s)": 57
    },
    {
        "Altitude(m)": 703508.9090986871,
        "Argument of Periapsis(deg)": 0.003476984362233526,
        "Eccentricity": 0.0,
        "Inclination(deg)": 45.0,
        "Latitude(deg)": 24.798310035573063,
        "Longitude(deg)": -42.85701403341997,
        "Mean Anomaly(deg)": 36.247966134494135,
        "RAAN(deg)": 29.996717828396964,
        "Satellite Name": "Constellation 1 134",
        "Satellite Number": 134,
        "Semi-Major Axis(m)": 7083131.272910544,
        "Time(s)": 58
    },
    {
        "Altitude(m)": 703513.6610268817,
        "Argument of Periapsis(deg)": 0.003536932368478932,
        "Eccentricity": 0.0,
        "Inclination(deg)": 45.0,
        "Latitude(deg)": 24.836632848962903,
        "Longitude(deg)": -42.809142017139415,
        "Mean Anomaly(deg)": 36.30866727474404,
        "RAAN(deg)": 29.996661239231397,
        "Satellite Name": "Constellation 1 134",
        "Satellite Number": 134,
        "Semi-Major Axis(m)": 7083131.272910544,
        "Time(s)": 59
    },
    {
        "Altitude(m)": 703518.4226508302,
        "Argument of Periapsis(deg)": 0.003596880374724337,
        "Eccentricity": 0.0,
        "Inclination(deg)": 45.0,
        "Latitude(deg)": 24.874937392568572,
        "Longitude(deg)": -42.761237833698175,
        "Mean Anomaly(deg)": 36.36936841499396,
        "RAAN(deg)": 29.99660465006583,
        "Satellite Name": "Constellation 1 134",
        "Satellite Number": 134,
        "Semi-Major Axis(m)": 7083131.272910544,
        "Time(s)": 60
    },
    {
        "Altitude(m)": 703523.193933723,
        "Argument of Periapsis(deg)": 0.0036568283809697427,
        "Eccentricity": 0.0,
        "Inclination(deg)": 45.0,
        "Latitude(deg)": 24.913223623539615,
        "Longitude(deg)": -42.71330159060201,
        "Mean Anomaly(deg)": 36.43006955524384,
        "RAAN(deg)": 29.996548060900256,
        "Satellite Name": "Constellation 1 134",
        "Satellite Number": 134,
        "Semi-Major Axis(m)": 7083131.272910544,
        "Time(s)": 61
    },
    {
        "Altitude(m)": 703527.974838724,
        "Argument of Periapsis(deg)": 0.003716776387215149,
        "Eccentricity": 0.0,
        "Inclination(deg)": 45.0,
        "Latitude(deg)": 24.95149149896327,
        "Longitude(deg)": -42.66533322725282,
        "Mean Anomaly(deg)": 36.49077069549375,
        "RAAN(deg)": 29.996491471734693,
        "Satellite Name": "Constellation 1 134",
        "Satellite Number": 134,
        "Semi-Major Axis(m)": 7083131.272910544,
        "Time(s)": 62
    },
    {
        "Altitude(m)": 703532.7653289689,
        "Argument of Periapsis(deg)": 0.003776724393460554,
        "Eccentricity": 0.0,
        "Inclination(deg)": 45.0,
        "Latitude(deg)": 24.98974097586406,
        "Longitude(deg)": -42.61733268304641,
        "Mean Anomaly(deg)": 36.551471835743634,
        "RAAN(deg)": 29.99643488256912,
        "Satellite Name": "Constellation 1 134",
        "Satellite Number": 134,
        "Semi-Major Axis(m)": 7083131.272910544,
        "Time(s)": 63
    },
    {
        "Altitude(m)": 703537.5653675558,
        "Argument of Periapsis(deg)": 0.003836672399705959,
        "Eccentricity": 0.0,
        "Inclination(deg)": 45.0,
        "Latitude(deg)": 25.027972011203783,
        "Longitude(deg)": -42.569299897372396,
        "Mean Anomaly(deg)": 36.61217297599354,
        "RAAN(deg)": 29.99637829340355,
        "Satellite Name": "Constellation 1 134",
        "Satellite Number": 134,
        "Semi-Major Axis(m)": 7083131.272910544,
        "Time(s)": 64
    },
    {
        "Altitude(m)": 703542.3749175577,
        "Argument of Periapsis(deg)": 0.003896620405951365,
        "Eccentricity": 0.0,
        "Inclination(deg)": 45.0,
        "Latitude(deg)": 25.066184561881368,
        "Longitude(deg)": -42.52123480961473,
        "Mean Anomaly(deg)": 36.67287411624344,
        "RAAN(deg)": 29.996321704237975,
        "Satellite Name": "Constellation 1 134",
        "Satellite Number": 134,
        "Semi-Major Axis(m)": 7083131.272910544,
        "Time(s)": 65
    },
    {
        "Altitude(m)": 703547.1939420102,
        "Argument of Periapsis(deg)": 0.003956568412196771,
        "Eccentricity": 0.0,
        "Inclination(deg)": 45.0,
        "Latitude(deg)": 25.104378584732718,
        "Longitude(deg)": -42.47313735915185,
        "Mean Anomaly(deg)": 36.73357525649333,
        "RAAN(deg)": 29.99626511507241,
        "Satellite Name": "Constellation 1 134",
        "Satellite Number": 134,
        "Semi-Major Axis(m)": 7083131.272910544,
        "Time(s)": 66
    },
    {
        "Altitude(m)": 703552.0224039295,
        "Argument of Periapsis(deg)": 0.004016516418442176,
        "Eccentricity": 0.0,
        "Inclination(deg)": 45.0,
        "Latitude(deg)": 25.142554036530523,
        "Longitude(deg)": -42.425007653454145,
        "Mean Anomaly(deg)": 36.79427639674323,
        "RAAN(deg)": 29.996208525906837,
        "Satellite Name": "Constellation 1 134",
        "Satellite Number": 134,
        "Semi-Major Axis(m)": 7083131.272910544,
        "Time(s)": 67
    },
    {
        "Altitude(m)": 703556.8602662879,
        "Argument of Periapsis(deg)": 0.004076464424687581,
        "Eccentricity": 0.0,
        "Inclination(deg)": 45.0,
        "Latitude(deg)": 25.18071087398489,
        "Longitude(deg)": -42.37684529569609,
        "Mean Anomaly(deg)": 36.854977536993125,
        "RAAN(deg)": 29.99615193674127,
        "Satellite Name": "Constellation 1 134",
        "Satellite Number": 134,
        "Semi-Major Axis(m)": 7083131.272910544,
        "Time(s)": 68
    },
    {
        "Altitude(m)": 703561.7074920405,
        "Argument of Periapsis(deg)": 0.004136412430932987,
        "Eccentricity": 0.0,
        "Inclination(deg)": 45.0,
        "Latitude(deg)": 25.218849053742037,
        "Longitude(deg)": -42.32865039333862,
        "Mean Anomaly(deg)": 36.91567867724304,
        "RAAN(deg)": 29.996095347575704,
        "Satellite Name": "Constellation 1 134",
        "Satellite Number": 134,
        "Semi-Major Axis(m)": 7083131.272910544,
        "Time(s)": 69
    },
    {
        "Altitude(m)": 703566.5640441042,
        "Argument of Periapsis(deg)": 0.004196360437178394,
        "Eccentricity": 0.0,
        "Inclination(deg)": 45.0,
        "Latitude(deg)": 25.256968532384985,
        "Longitude(deg)": -42.280422885741345,
        "Mean Anomaly(deg)": 36.97637981749294,
        "RAAN(deg)": 29.996038758410133,
        "Satellite Name": "Constellation 1 134",
        "Satellite Number": 134,
        "Semi-Major Axis(m)": 7083131.272910544,
        "Time(s)": 70
    },
    {
        "Altitude(m)": 703571.4298853735,
        "Argument of Periapsis(deg)": 0.004256308443423799,
        "Eccentricity": 0.0,
        "Inclination(deg)": 45.0,
        "Latitude(deg)": 25.295069266433288,
        "Longitude(deg)": -42.232162712260056,
        "Mean Anomaly(deg)": 37.03708095774283,
        "RAAN(deg)": 29.99598216924456,
        "Satellite Name": "Constellation 1 134",
        "Satellite Number": 134,
        "Semi-Major Axis(m)": 7083131.272910544,
        "Time(s)": 71
    },
    {
        "Altitude(m)": 703576.3049787036,
        "Argument of Periapsis(deg)": 0.004316256449669204,
        "Eccentricity": 0.0,
        "Inclination(deg)": 45.0,
        "Latitude(deg)": 25.333151212342994,
        "Longitude(deg)": -42.18386981224673,
        "Mean Anomaly(deg)": 37.09778209799272,
        "RAAN(deg)": 29.995925580078996,
        "Satellite Name": "Constellation 1 134",
        "Satellite Number": 134,
        "Semi-Major Axis(m)": 7083131.272910544,
        "Time(s)": 72
    },
    {
        "Altitude(m)": 703581.1892869313,
        "Argument of Periapsis(deg)": 0.00437620445591461,
        "Eccentricity": 0.0,
        "Inclination(deg)": 45.0,
        "Latitude(deg)": 25.371214326506404,
        "Longitude(deg)": -42.13554412505025,
        "Mean Anomaly(deg)": 37.15848323824264,
        "RAAN(deg)": 29.995868990913422,
        "Satellite Name": "Constellation 1 134",
        "Satellite Number": 134,
        "Semi-Major Axis(m)": 7083131.272910544,
        "Time(s)": 73
    },
    {
        "Altitude(m)": 703586.0827728542,
        "Argument of Periapsis(deg)": 0.004436152462160016,
        "Eccentricity": 0.0,
        "Inclination(deg)": 45.0,
        "Latitude(deg)": 25.409258565251836,
        "Longitude(deg)": -42.0871857581132,
        "Mean Anomaly(deg)": 37.21918437849253,
        "RAAN(deg)": 29.995812401747855,
        "Satellite Name": "Constellation 1 134",
        "Satellite Number": 134,
        "Semi-Major Axis(m)": 7083131.272910544,
        "Time(s)": 74
    },
    {
        "Altitude(m)": 703590.9853992484,
        "Argument of Periapsis(deg)": 0.0044961004684054215,
        "Eccentricity": 0.0,
        "Inclination(deg)": 45.0,
        "Latitude(deg)": 25.44728388484439,
        "Longitude(deg)": -42.03879431458482,
        "Mean Anomaly(deg)": 37.279885518742425,
        "RAAN(deg)": 29.99575581258228,
        "Satellite Name": "Constellation 1 134",
        "Satellite Number": 134,
        "Semi-Major Axis(m)": 7083131.272910544,
        "Time(s)": 75
    }
]